NOAA 15                 
1 25338U 98030A   18247.55648861  .00000031  00000-0  31689-4 0  9991
2 25338  98.7677 264.0337 0010454   3.4069 356.7180 14.25873570 56326
METEOSAT-8 (MSG-1)      
1 27509U 02040B   18247.08999925  .00000127  00000-0  00000+0 0  9991
2 27509   5.5965  56.6574 0000224 104.2946 255.9100  1.00272172 58740
NOAA 18                 
1 28654U 05018A   18247.51965040 -.00000010  00000-0  19558-4 0  9995
2 28654  99.1390 284.5615 0013305 264.1747  95.7907 14.12383956684975
METEOSAT-9 (MSG-2)      
1 28912U 05049B   18247.38938153  .00000004  00000-0  00000+0 0  9995
2 28912   3.0755  71.6438 0000275  65.7405 349.5443  1.00274595 46571
HIMAWARI-7 (MTSAT-2)    
1 28937U 06004A   18246.89917775 -.00000256  00000-0  00000-0 0  9997
2 28937   0.0576 311.8721 0003931 207.9152 291.9159  1.00274063 45978
FORMOSAT-3 FM6          
1 29047U 06011A   18247.47141445 -.00000013  00000-0  11071-4 0  9991
2 29047  71.9811   0.5932 0048633 106.4657 254.1831 14.28648676648221
FORMOSAT-3 FM1          
1 29048U 06011B   18247.18979953 -.00000046  00000-0 -18166-5 0  9993
2 29048  71.9652 272.8339 0042070  61.6228 298.9140 14.28585444650657
FORMOSAT-3 FM5          
1 29049U 06011C   18246.94759750  .00000031  00000-0  28472-4 0  9990
2 29049  72.0189  81.2859 0033536  96.5408 263.9548 14.28664781646402
FORMOSAT-3 FM3          
1 29050U 06011D   18247.22293399  .00000179  00000-0  48173-4 0  9999
2 29050  72.0154 293.3645 0048044  69.0304 291.5979 14.58698585661319
FORMOSAT-3 FM4          
1 29051U 06011E   18247.45048719  .00000013  00000-0  21204-4 0  9992
2 29051  72.0078 343.5368 0069447 331.0933  28.6363 14.28692242649060
FORMOSAT-3 FM2          
1 29052U 06011F   18246.93537604  .00000029  00000-0  27438-4 0  9993
2 29052  72.0339  56.8478 0039038  56.2084 304.2761 14.28789876647314
GOES 13                 
1 29155U 06018A   18247.21327861 -.00000299  00000-0  00000+0 0  9999
2 29155   0.0285 161.4558 0007284 259.2067 299.4172  1.00278250 45010
METOP-A                 
1 29499U 06044A   18246.95684351 -.00000024  00000-0  89090-5 0  9997
2 29499  98.6195 302.6381 0001099  47.9409  80.2166 14.21530078616005
FENGYUN 2D              
1 29640U 06053A   18247.46915844 -.00000376  00000-0  10000-3 0  9999
2 29640   5.2561  62.2314 0006133 297.8204 276.0282  1.00279549 43051
FENGYUN 3A              
1 32958U 08026A   18247.43717893 -.00000000  00000-0  19046-4 0  9992
2 32958  98.3806 258.1102 0010857  71.0465 289.1893 14.19713831532363
FENGYUN 2E              
1 33463U 08066A   18246.05188363 -.00000216  00000-0  00000-0 0  9994
2 33463   3.0257  69.1046 0004634 232.7488 145.8744  1.00272152 35578
NOAA 19                 
1 33591U 09005A   18247.55838598  .00000060  00000-0  57459-4 0  9998
2 33591  99.1494 227.1896 0014973 102.9154 257.3690 14.12305160493371
GOES 14                 
1 35491U 09033A   18247.33567896 -.00000110  00000-0  00000+0 0  9998
2 35491   0.3891 276.8780 0010714 301.4957 141.5567  1.00275141 33652
METEOR-M 1              
1 35865U 09049A   18247.55180358  .00000029  00000-0  31837-4 0  9993
2 35865  98.4072 253.9390 0001342 314.4900  45.6168 14.22162769465253
GOES 15                 
1 36411U 10008A   18247.42087809  .00000073  00000-0  00000+0 0  9993
2 36411   0.4076 279.1562 0004368 265.6915 175.1542  1.00260017 31186
COMS 1                  
1 36744U 10032A   18247.47011803 -.00000360  00000-0  00000+0 0  9995
2 36744   0.0074  56.2228 0000645  99.8908 124.8149  1.00271502 30145
FENGYUN 3B              
1 37214U 10059A   18247.53674631 -.00000006  00000-0  20163-4 0  9992
2 37214  98.9562 212.3260 0016611 319.8933  40.1005 14.15892010405421
SUOMI NPP               
1 37849U 11061A   18246.92317493  .00000002  00000-0  21546-4 0  9993
2 37849  98.7404 184.3671 0001001  53.9902 347.6722 14.19539787355058
FENGYUN 2F              
1 38049U 12002A   18246.99146579 -.00000372  00000-0  00000+0 0  9992
2 38049   2.6212  77.9116 0003997 222.6311 151.4978  1.00266553 24385
METEOSAT-10 (MSG-3)     
1 38552U 12035B   18246.99884550  .00000048  00000-0  00000+0 0  9994
2 38552   1.0414 351.5196 0000227 102.2065 258.3946  1.00264947 22703
METOP-B                 
1 38771U 12049A   18246.97164352 -.00000028  00000-0  69083-5 0  9992
2 38771  98.6649 304.9920 0002148  75.7458 268.7425 14.21511437309328
FENGYUN 3C              
1 39260U 13052A   18247.42758440 -.00000007  00000-0  18184-4 0  9991
2 39260  98.6469 310.4798 0010122 290.4870  69.5216 14.15850542256357
METEOR-M 2              
1 40069U 14037A   18247.43631219 -.00000015  00000-0  12904-4 0  9992
2 40069  98.5958 296.4026 0006037  21.8852 338.2581 14.20654082215635
HIMAWARI-8              
1 40267U 14060A   18246.65720828 -.00000289  00000-0  00000+0 0  9998
2 40267   0.0239 249.6373 0001040 291.1602 179.2106  1.00273128 14358
FENGYUN 2G              
1 40367U 14090A   18246.89001799 -.00000315  00000-0  00000-0 0  9998
2 40367   0.5919 112.1755 0002802 221.4356  69.0472  1.00281400 13539
METEOSAT-11 (MSG-4)     
1 40732U 15034A   18246.72141489 -.00000013  00000-0  00000-0 0  9991
2 40732   1.2327 243.5629 0001549 242.2622 116.8565  1.00277951 11537
ELEKTRO-L 2             
1 41105U 15074A   18246.95767243 -.00000112  00000-0  00000-0 0  9997
2 41105   0.0244 259.5340 0001680 270.7211 233.5769  1.00273550 10016
HIMAWARI-9              
1 41836U 16064A   18246.65690527 -.00000288  00000-0  00000+0 0  9998
2 41836   0.0398 292.4335 0000442 271.8898 155.6828  1.00271540  6792
GOES 16                 
1 41866U 16071A   18247.25521328 -.00000264  00000-0  00000+0 0  9992
2 41866   0.0108 104.7605 0000430 126.5899 128.6457  1.00269303  6605
FENGYUN 4A              
1 41882U 16077A   18247.59104984 -.00000346  00000-0  00000+0 0  9999
2 41882   0.1052  94.8151 0006875  47.7157 158.5675  1.00267297  6476
CYGFM05                 
1 41884U 16078A   18246.83583160  .00000793  00000-0  44126-4 0  9992
2 41884  34.9563 152.5112 0016164 336.2575  23.7389 15.14178532 95118
CYGFM04                 
1 41885U 16078B   18247.15703834  .00000270  00000-0  15976-4 0  9992
2 41885  34.9494 147.2171 0014344 343.1410  16.8823 15.14690585 95192
CYGFM02                 
1 41886U 16078C   18246.88629486  .00000281  00000-0  16565-4 0  9999
2 41886  34.9586 150.1809 0015195 338.7890  21.2190 15.14688770 95148
CYGFM01                 
1 41887U 16078D   18246.92337271  .00000262  00000-0  15839-4 0  9995
2 41887  34.9530 152.1255 0016529 338.9027  21.1001 15.14008107 95129
CYGFM08                 
1 41888U 16078E   18246.82804581  .00001307  00000-0  71177-4 0  9996
2 41888  34.9500 151.2019 0015739 340.3544  19.6560 15.14398053 95111
CYGFM06                 
1 41889U 16078F   18246.92733294  .00000283  00000-0  16664-4 0  9992
2 41889  34.9580 148.5865 0014119 338.9076  21.1052 15.14678311 95158
CYGFM07                 
1 41890U 16078G   18246.90608979  .00000272  00000-0  16072-4 0  9994
2 41890  34.9519 148.1215 0013844 340.4077  19.6101 15.14682156 95159
CYGFM03                 
1 41891U 16078H   18246.90098211  .00000270  00000-0  16000-4 0  9996
2 41891  34.9551 148.2312 0013328 339.6140  20.4038 15.14680235 95158
FENGYUN 3D              
1 43010U 17072A   18247.53601674 -.00000024  00000-0  90944-5 0  9997
2 43010  98.6797 186.7970 0001896 119.0086 241.1271 14.19702890 41692
NOAA 20                 
1 43013U 17073A   18247.51365660 -.00000002  00000-0  19658-4 0  9999
2 43013  98.7285 184.6659 0001335  68.0395 292.0923 14.19545864 41160
